{
  "type": "FeatureCollection",
  "features": [
    {
      "type": "Feature",
      "properties": {
        "norad_id": 31448,
        "name": "FENGYUN 1C DEB",
        "group": "fengyun-1c-debris",
        "lat": 1.1023164979690259,
        "lon": 6.823740454698762,
        "alt_km": 844.2606034171686,
        "timestamp": "2025-12-21T22:41:41.742403+00:00",
        "meta_object_name": "FENGYUN 1C DEB",
        "meta_object_id": "1999-025BUL",
        "meta_epoch": "2025-12-20T18:05:54.538080",
        "meta_mean_motion": 14.27837488,
        "meta_eccentricity": 0.00593925,
        "meta_inclination": 98.4998,
        "meta_ra_of_asc_node": 5.8293,
        "meta_arg_of_pericenter": 180.4564,
        "meta_mean_anomaly": 179.6573,
        "meta_ephemeris_type": 0,
        "meta_classification_type": "U",
        "meta_norad_cat_id": 31448,
        "meta_element_set_no": 999,
        "meta_rev_at_epoch": 64418,
        "meta_bstar": 0.00043686395,
        "meta_mean_motion_dot": 1.058e-05,
        "meta_mean_motion_ddot": 0,
        "tle_line1": "1 31448U 99025BUL 25354.75410345  .00001058  00000+0  43686-3 0  9996",
        "tle_line2": "2 31448  98.4998   5.8293 0059392 180.4564 179.6573 14.27837488644185"
      },
      "geometry": {
        "type": "Point",
        "coordinates": [
          6.823740454698762,
          1.1023164979690259
        ]
      }
    },
    {
      "type": "Feature",
      "properties": {
        "norad_id": 31449,
        "name": "FENGYUN 1C DEB",
        "group": "fengyun-1c-debris",
        "lat": 1.6024763367140822,
        "lon": -125.39876033898582,
        "alt_km": 734.1073543864122,
        "timestamp": "2025-12-21T22:41:41.742413+00:00",
        "meta_object_name": "FENGYUN 1C DEB",
        "meta_object_id": "1999-025BUM",
        "meta_epoch": "2025-12-20T10:40:43.619520",
        "meta_mean_motion": 14.33719628,
        "meta_eccentricity": 0.01441603,
        "meta_inclination": 98.5539,
        "meta_ra_of_asc_node": 52.876,
        "meta_arg_of_pericenter": 245.7554,
        "meta_mean_anomaly": 112.8511,
        "meta_ephemeris_type": 0,
        "meta_classification_type": "U",
        "meta_norad_cat_id": 31449,
        "meta_element_set_no": 999,
        "meta_rev_at_epoch": 97747,
        "meta_bstar": 0.00016710121,
        "meta_mean_motion_dot": 4.73e-06,
        "meta_mean_motion_ddot": 0,
        "tle_line1": "1 31449U 99025BUM 25354.44494930  .00000473  00000+0  16710-3 0  9993",
        "tle_line2": "2 31449  98.5539  52.8760 0144160 245.7554 112.8511 14.33719628977475"
      },
      "geometry": {
        "type": "Point",
        "coordinates": [
          -125.39876033898582,
          1.6024763367140822
        ]
      }
    },
    {
      "type": "Feature",
      "properties": {
        "norad_id": 31451,
        "name": "FENGYUN 1C DEB",
        "group": "fengyun-1c-debris",
        "lat": 6.200536957466746,
        "lon": 36.87164282370422,
        "alt_km": 871.7077494250589,
        "timestamp": "2025-12-21T22:41:41.742423+00:00",
        "meta_object_name": "FENGYUN 1C DEB",
        "meta_object_id": "1999-025BUP",
        "meta_epoch": "2025-12-17T01:35:52.740960",
        "meta_mean_motion": 14.13630438,
        "meta_eccentricity": 0.00314143,
        "meta_inclination": 98.7632,
        "meta_ra_of_asc_node": 33.0517,
        "meta_arg_of_pericenter": 198.9237,
        "meta_mean_anomaly": 191.5319,
        "meta_ephemeris_type": 0,
        "meta_classification_type": "U",
        "meta_norad_cat_id": 31451,
        "meta_element_set_no": 999,
        "meta_rev_at_epoch": 96071,
        "meta_bstar": 0.00034950868,
        "meta_mean_motion_dot": 6.19e-06,
        "meta_mean_motion_ddot": 0,
        "tle_line1": "1 31451U 99025BUP 25351.06658265  .00000619  00000+0  34951-3 0  9993",
        "tle_line2": "2 31451  98.7632  33.0517 0031414 198.9237 191.5319 14.13630438960717"
      },
      "geometry": {
        "type": "Point",
        "coordinates": [
          36.87164282370422,
          6.200536957466746
        ]
      }
    },
    {
      "type": "Feature",
      "properties": {
        "norad_id": 31452,
        "name": "FENGYUN 1C DEB",
        "group": "fengyun-1c-debris",
        "lat": -44.92654086423747,
        "lon": -8.64244275450467,
        "alt_km": 873.2646694995519,
        "timestamp": "2025-12-21T22:41:41.742434+00:00",
        "meta_object_name": "FENGYUN 1C DEB",
        "meta_object_id": "1999-025BUQ",
        "meta_epoch": "2025-12-17T05:13:17.668704",
        "meta_mean_motion": 14.15174584,
        "meta_eccentricity": 0.00409624,
        "meta_inclination": 98.6577,
        "meta_ra_of_asc_node": 338.0277,
        "meta_arg_of_pericenter": 115.448,
        "meta_mean_anomaly": 245.0941,
        "meta_ephemeris_type": 0,
        "meta_classification_type": "U",
        "meta_norad_cat_id": 31452,
        "meta_element_set_no": 999,
        "meta_rev_at_epoch": 96269,
        "meta_bstar": 0.00032143342,
        "meta_mean_motion_dot": 5.87e-06,
        "meta_mean_motion_ddot": 0,
        "tle_line1": "1 31452U 99025BUQ 25351.21756561  .00000587  00000+0  32143-3 0  9994",
        "tle_line2": "2 31452  98.6577 338.0277 0040962 115.4480 245.0941 14.15174584962690"
      },
      "geometry": {
        "type": "Point",
        "coordinates": [
          -8.64244275450467,
          -44.92654086423747
        ]
      }
    },
    {
      "type": "Feature",
      "properties": {
        "norad_id": 31455,
        "name": "FENGYUN 1C DEB",
        "group": "fengyun-1c-debris",
        "lat": 8.808983201386583,
        "lon": 165.11205766847584,
        "alt_km": 985.8493423508744,
        "timestamp": "2025-12-21T22:41:41.742443+00:00",
        "meta_object_name": "FENGYUN 1C DEB",
        "meta_object_id": "1999-025BUT",
        "meta_epoch": "2025-12-20T05:04:03.520704",
        "meta_mean_motion": 14.11438755,
        "meta_eccentricity": 0.0218316,
        "meta_inclination": 98.5747,
        "meta_ra_of_asc_node": 342.1137,
        "meta_arg_of_pericenter": 30.0004,
        "meta_mean_anomaly": 331.3471,
        "meta_ephemeris_type": 0,
        "meta_classification_type": "U",
        "meta_norad_cat_id": 31455,
        "meta_element_set_no": 999,
        "meta_rev_at_epoch": 96209,
        "meta_bstar": 0.0002155,
        "meta_mean_motion_dot": 4.46e-06,
        "meta_mean_motion_ddot": 0,
        "tle_line1": "1 31455U 99025BUT 25354.21115186  .00000446  00000+0  21550-3 0  9996",
        "tle_line2": "2 31455  98.5747 342.1137 0218316  30.0004 331.3471 14.11438755962096"
      },
      "geometry": {
        "type": "Point",
        "coordinates": [
          165.11205766847584,
          8.808983201386583
        ]
      }
    },
    {
      "type": "Feature",
      "properties": {
        "norad_id": 31456,
        "name": "FENGYUN 1C DEB",
        "group": "fengyun-1c-debris",
        "lat": 78.60553492761375,
        "lon": -33.15696896020122,
        "alt_km": 790.7718038373023,
        "timestamp": "2025-12-21T22:41:41.742453+00:00",
        "meta_object_name": "FENGYUN 1C DEB",
        "meta_object_id": "1999-025BUU",
        "meta_epoch": "2025-12-21T12:15:10.274112",
        "meta_mean_motion": 14.42440771,
        "meta_eccentricity": 0.00676954,
        "meta_inclination": 98.5778,
        "meta_ra_of_asc_node": 97.9069,
        "meta_arg_of_pericenter": 287.6783,
        "meta_mean_anomaly": 71.7024,
        "meta_ephemeris_type": 0,
        "meta_classification_type": "U",
        "meta_norad_cat_id": 31456,
        "meta_element_set_no": 999,
        "meta_rev_at_epoch": 97593,
        "meta_bstar": 0.00065261746,
        "meta_mean_motion_dot": 2.174e-05,
        "meta_mean_motion_ddot": 0,
        "tle_line1": "1 31456U 99025BUU 25355.51053558  .00002174  00000+0  65262-3 0  9993",
        "tle_line2": "2 31456  98.5778  97.9069 0067695 287.6783  71.7024 14.42440771975937"
      },
      "geometry": {
        "type": "Point",
        "coordinates": [
          -33.15696896020122,
          78.60553492761375
        ]
      }
    },
    {
      "type": "Feature",
      "properties": {
        "norad_id": 31459,
        "name": "FENGYUN 1C DEB",
        "group": "fengyun-1c-debris",
        "lat": 79.41442256590615,
        "lon": 134.14978404588294,
        "alt_km": 670.7973512941899,
        "timestamp": "2025-12-21T22:41:41.742463+00:00",
        "meta_object_name": "FENGYUN 1C DEB",
        "meta_object_id": "1999-025BUX",
        "meta_epoch": "2025-12-12T23:44:38.705568",
        "meta_mean_motion": 14.44083824,
        "meta_eccentricity": 0.00940456,
        "meta_inclination": 98.1765,
        "meta_ra_of_asc_node": 255.2445,
        "meta_arg_of_pericenter": 130.906,
        "meta_mean_anomaly": 230.0325,
        "meta_ephemeris_type": 0,
        "meta_classification_type": "U",
        "meta_norad_cat_id": 31459,
        "meta_element_set_no": 999,
        "meta_rev_at_epoch": 64561,
        "meta_bstar": 0.0020176648,
        "meta_mean_motion_dot": 7.253e-05,
        "meta_mean_motion_ddot": 0,
        "tle_line1": "1 31459U 99025BUX 25346.98933687  .00007253  00000+0  20177-2 0  9995",
        "tle_line2": "2 31459  98.1765 255.2445 0094045 130.9060 230.0325 14.44083824645613"
      },
      "geometry": {
        "type": "Point",
        "coordinates": [
          134.14978404588294,
          79.41442256590615
        ]
      }
    }
  ]
}